[{"OBJECT_NAME":"GRUS-1D","OBJECT_ID":"2021-022E","EPOCH":"2026-03-09T23:44:16.341792","MEAN_MOTION":14.9882754,"ECCENTRICITY":0.00122189,"INCLINATION":97.5533,"RA_OF_ASC_NODE":315.589,"ARG_OF_PERICENTER":289.6697,"MEAN_ANOMALY":70.3207,"EPHEMERIS_TYPE":0,"CLASSIFICATION_TYPE":"U","NORAD_CAT_ID":47936,"ELEMENT_SET_NO":999,"REV_AT_EPOCH":27104,"BSTAR":0.00015470185,"MEAN_MOTION_DOT":1.811e-5,"MEAN_MOTION_DDOT":0},{"OBJECT_NAME":"STARLINK-34385","OBJECT_ID":"2025-126J","EPOCH":"2026-03-09T22:10:12.260928","MEAN_MOTION":14.98334733,"ECCENTRICITY":0.00028008,"INCLINATION":70.003,"RA_OF_ASC_NODE":34.0009,"ARG_OF_PERICENTER":274.0241,"MEAN_ANOMALY":86.0598,"EPHEMERIS_TYPE":0,"CLASSIFICATION_TYPE":"U","NORAD_CAT_ID":64352,"ELEMENT_SET_NO":999,"REV_AT_EPOCH":4071,"BSTAR":0.00043045685,"MEAN_MOTION_DOT":5.047e-5,"MEAN_MOTION_DDOT":0}]
